EOSSAT-1                
1 55053U 23001AW  26068.73619225  .00007695  00000+0  24844-3 0  9992
2 55053  97.3357 130.2294 0011263 110.3168 249.9285 15.32339828176689
STARLINK-36033          
1 66893U 25283R   26068.26396658  .00018656  00000+0  64068-3 0  9991
2 66893  53.1627  26.5248 0001106 106.8453 253.2670 15.30186705 15771
